OBJECT_NAME,OBJECT_ID,EPOCH,MEAN_MOTION,ECCENTRICITY,INCLINATION,RA_OF_ASC_NODE,ARG_OF_PERICENTER,MEAN_ANOMALY,EPHEMERIS_TYPE,CLASSIFICATION_TYPE,NORAD_CAT_ID,ELEMENT_SET_NO,REV_AT_EPOCH,BSTAR,MEAN_MOTION_DOT,MEAN_MOTION_DDOT
PERSEUS-M1,2014-033AF,2026-06-17T18:31:48.353088,14.95632050,.0010261,97.9641,112.9133,299.0982,60.9211,0,U,40039,999,65072,.11581E-3,.1227E-4,0
POLYITAN-1,2014-033AJ,2026-06-17T01:15:17.278848,15.33254216,.00086301,98.0938,194.3006,141.6733,218.5122,0,U,40042,999,65357,.49658794E-3,.159E-3,0
TIGRISAT,2014-033AK,2026-06-17T09:14:54.798144,14.85162991,.00505914,97.7829,318.3922,74.5854,286.0942,0,U,40043,999,64565,.1958723E-3,.1661E-4,0
AEROCUBE 6A,2014-033AM,2026-06-17T10:11:00.600000,14.98111477,.00388924,97.7245,335.3700,17.3108,342.9430,0,U,40045,999,64665,.35804154E-3,.4245E-4,0
AEROCUBE 6B,2014-033AN,2026-06-17T10:14:01.909536,14.99571864,.00382728,97.7243,335.1630,8.5458,351.6408,0,U,40046,999,64679,.32325092E-3,.3974E-4,0
CANX-4,2014-034C,2026-06-17T14:59:38.304096,14.81265369,.0013136,98.3121,43.9539,15.6854,344.4762,0,U,40055,999,64459,.10006E-3,.723E-5,0
CANX-5,2014-034D,2026-06-17T14:57:22.496256,14.81282603,.0013144,98.3123,43.9959,15.9021,344.2600,0,U,40056,999,63540,.10032E-3,.726E-5,0
UKUBE-1,2014-037F,2026-06-17T05:37:29.230176,15.13553312,.00025931,98.4230,171.5112,132.6061,227.5387,0,U,40074,999,64856,.38454744E-3,.6818E-4,0
BRITE-PL2 (HEWELIUSZ),2014-049B,2026-06-17T18:35:51.171648,14.94594969,.0015304,97.9098,280.7793,106.7717,253.5183,0,U,40119,999,64153,.14446E-3,.1507E-4,0
AEROCUBE 5C,2015-058B,2026-06-17T12:08:45.871008,14.91454811,.01307566,64.7676,261.5986,63.1470,298.2940,0,U,40965,999,36570,.16077043E-3,.1718E-4,0
AEROCUBE 7,2015-058C,2026-06-17T12:02:10.409568,14.95727167,.0120478,64.7618,243.8316,61.5772,299.7422,0,U,40966,999,36600,.20684879E-3,.2489E-4,0
FOX-1A (AO-85),2015-058D,2026-06-17T14:54:02.221056,14.90971345,.0130499,64.7761,277.6363,56.4134,304.9355,0,U,40967,999,11363,.17288E-3,.1835E-4,0
SINOD-D 1,2015-058E,2026-06-17T11:30:22.282848,14.95907070,.01190493,64.7753,257.9976,52.9638,308.2295,0,U,40968,999,11670,.201744E-3,.2427E-4,0
SNAP-3 ALICE,2015-058G,2026-06-17T05:42:30.606336,15.60063664,.00282046,64.7502,103.7563,12.8584,347.3274,0,U,40970,999,11689,.11402358E-2,.95632E-3,0
LMRST-SAT,2015-058H,2026-06-17T15:26:26.691936,14.90591401,.0132104,64.7765,273.9050,58.4374,302.9558,0,U,40971,999,11362,.16024E-3,.1676E-4,0
SNAP-3 EDDIE,2015-058J,2026-06-17T02:23:39.753888,15.61322960,.0027728,64.7426,94.9589,16.8324,343.3735,0,U,40972,999,11901,.11740921E-2,.103426E-2,0
PROPCUBE 3,2015-058K,2026-06-17T14:39:42.009696,14.94259233,.0124058,64.7683,251.2121,59.7494,301.5831,0,U,40973,999,11486,.18236E-3,.2101E-4,0
BISONSAT,2015-058L,2026-06-17T07:07:42.623904,15.16191198,.00790342,64.7578,173.2895,47.2137,313.5598,0,U,40974,999,11563,.46211703E-3,.951E-4,0
SNAP-3 JIMI,2015-058M,2026-06-17T12:31:44.611104,15.02299948,.010619,64.7634,218.7133,55.2315,305.8742,0,U,40975,999,11427,.24618E-3,.3494E-4,0
PROPCUBE 1 (FLORA),2015-058N,2026-06-17T17:35:32.952192,14.89224245,.0130784,64.7756,293.5441,60.7107,300.7000,0,U,40976,999,11634,.1754E-3,.1776E-4,0
SINOD-D 3,2015-058P,2026-06-17T15:25:25.647744,14.94018331,.0119289,64.7731,274.3970,57.9531,303.3102,0,U,40977,999,11482,.21502E-3,.2465E-4,0
HORYU-4,2016-012D,2026-06-15T10:27:05.146272,15.94546005,.00051492,30.9849,91.8834,261.3375,98.6703,0,U,41340,999,57053,.9799184E-3,.392649E-2,.54782598E-4
RAVAN,2016-067B,2026-06-17T14:57:02.436768,15.54715038,.000435,97.9885,58.2450,30.7045,329.4461,0,U,41849,999,52776,.6285E-3,.41762E-3,0
CELTEE 1,2016-067C,2026-06-17T20:46:23.367072,15.19687812,.0000971,98.0667,35.4787,126.7239,233.4083,0,U,41850,999,52598,.19479E-3,.408E-4,0
OPTICUBE 04,2016-067D,2026-06-17T13:02:08.808864,15.09660048,.0016863,98.0694,20.8453,114.5788,245.7199,0,U,41851,999,52522,.13878E-3,.2169E-4,0
AEROCUBE 8D,2016-067E,2026-06-17T21:03:47.436768,15.24405693,.0004734,98.0674,39.1013,121.4988,238.6710,0,U,41852,999,52617,.24703E-3,.5976E-4,0
AEROCUBE 8C,2016-067F,2026-06-17T02:45:31.244544,15.24645087,.00066104,98.0547,35.5083,69.3515,290.8429,0,U,41853,999,52605,.2498007E-3,.6089E-4,0
CORVUS BC2,2017-042X,2026-06-17T11:03:14.016096,15.06299036,.0014358,97.4067,329.7991,109.6368,250.6411,0,U,42846,999,48710,.22972484E-3,.3323E-4,0
CORVUS BC1,2017-042Y,2026-06-17T12:31:04.423872,15.06469201,.0013382,97.4102,330.6722,88.1948,272.0813,0,U,42847,999,48714,.20187E-3,.2925E-4,0
MAKERSAT 0,2017-073D,2026-06-17T15:17:26.646144,15.32110935,.0105075,97.4617,51.1594,271.3551,87.5656,0,U,43016,999,46653,.37519E-3,.1377E-3,0
